{
    "links": {
        "self": "http://www.neowsapp.com/rest/v1/neo/3763418?api_key=iIulBulltgU6a56xZRHN4H3l9WmuAYTsLGpBGhQ2"
    },
    "id": "3763418",
    "neo_reference_id": "3763418",
    "name": "(2016 VO2)",
    "designation": "2016 VO2",
    "nasa_jpl_url": "http://ssd.jpl.nasa.gov/sbdb.cgi?sstr=3763418",
    "absolute_magnitude_h": 26.7,
    "estimated_diameter": {
        "kilometers": {
            "estimated_diameter_min": 0.0121494041,
            "estimated_diameter_max": 0.0271668934
        },
        "meters": {
            "estimated_diameter_min": 12.14940408,
            "estimated_diameter_max": 27.1668934089
        },
        "miles": {
            "estimated_diameter_min": 0.0075492874,
            "estimated_diameter_max": 0.0168807197
        },
        "feet": {
            "estimated_diameter_min": 39.8602508817,
            "estimated_diameter_max": 89.1302305717
        }
    },
    "is_potentially_hazardous_asteroid": false,
    "close_approach_data": [
        {
            "close_approach_date": "2014-11-11",
            "close_approach_date_full": "2014-Nov-11 04:38",
            "epoch_date_close_approach": 1415680680000,
            "relative_velocity": {
                "kilometers_per_second": "18.5148232175",
                "kilometers_per_hour": "66653.363583103",
                "miles_per_hour": "41415.8080552897"
            },
            "miss_distance": {
                "astronomical": "0.1209854098",
                "lunar": "47.0633244122",
                "kilometers": "18099159.607157126",
                "miles": "11246296.2821992988"
            },
            "orbiting_body": "Earth"
        },
        {
            "close_approach_date": "2016-11-03",
            "close_approach_date_full": "2016-Nov-03 00:56",
            "epoch_date_close_approach": 1478134560000,
            "relative_velocity": {
                "kilometers_per_second": "14.8812036308",
                "kilometers_per_hour": "53572.3330709502",
                "miles_per_hour": "33287.7644017801"
            },
            "miss_distance": {
                "astronomical": "0.0170471393",
                "lunar": "6.6313371877",
                "kilometers": "2550215.728873291",
                "miles": "1584630.5736257758"
            },
            "orbiting_body": "Earth"
        }
    ],
    "orbital_data": {
        "orbit_id": "2",
        "orbit_determination_date": "2017-04-06 08:22:23",
        "first_observation_date": "2016-11-06",
        "last_observation_date": "2016-11-08",
        "data_arc_in_days": 2,
        "observations_used": 19,
        "orbit_uncertainty": "8",
        "minimum_orbit_intersection": ".015374",
        "jupiter_tisserand_invariant": "4.232",
        "epoch_osculation": "2457699.5",
        "eccentricity": ".517140005758449",
        "semi_major_axis": "1.57563178447841",
        "inclination": "9.190044623974753",
        "ascending_node_longitude": "226.4766118312332",
        "orbital_period": "722.404639418674",
        "perihelion_distance": ".76080955438005",
        "perihelion_argument": "102.5355161399122",
        "aphelion_distance": "2.390454014576771",
        "perihelion_time": "2457647.674402532199",
        "mean_anomaly": "25.82654383756727",
        "mean_motion": ".4983356700057955",
        "equinox": "J2000",
        "orbit_class": {
            "orbit_class_type": "APO",
            "orbit_class_description": "Near-Earth asteroid orbits which cross the Earth’s orbit similar to that of 1862 Apollo",
            "orbit_class_range": "a (semi-major axis) > 1.0 AU; q (perihelion) < 1.017 AU"
        }
    },
    "is_sentry_object": false
}